{
  "type": "FeatureCollection",
  "features": [
    {
      "type": "Feature",
      "properties": {
        "norad_id": 33376,
        "name": "GALAXY 19 (G-19)",
        "group": "intelsat",
        "lat": -0.023353297830504112,
        "lon": -148.08704684848976,
        "alt_km": 35781.14960674876,
        "timestamp": "2025-12-20T14:38:01.626203+00:00",
        "meta_object_name": "GALAXY 19 (G-19)",
        "meta_object_id": "2008-045A",
        "meta_epoch": "2025-12-20T05:07:10.727904",
        "meta_mean_motion": 1.00271506,
        "meta_eccentricity": 0.00025154,
        "meta_inclination": 0.0133,
        "meta_ra_of_asc_node": 295.5153,
        "meta_arg_of_pericenter": 338.3209,
        "meta_mean_anomaly": 155.0094,
        "meta_ephemeris_type": 0,
        "meta_classification_type": "U",
        "meta_norad_cat_id": 33376,
        "meta_element_set_no": 999,
        "meta_rev_at_epoch": 6310,
        "meta_bstar": 0,
        "meta_mean_motion_dot": -1.15e-06,
        "meta_mean_motion_ddot": 0,
        "tle_line1": "1 33376U 08045A   25354.21331861 -.00000115  00000+0  00000+0 0  9999",
        "tle_line2": "2 33376   0.0133 295.5153 0002515 338.3209 155.0094  1.00271506 63108"
      },
      "geometry": {
        "type": "Point",
        "coordinates": [
          -148.08704684848976,
          -0.023353297830504112
        ]
      }
    },
    {
      "type": "Feature",
      "properties": {
        "norad_id": 35493,
        "name": "FM-5",
        "group": "intelsat",
        "lat": -0.032087556151258925,
        "lon": -137.18972944720903,
        "alt_km": 35784.49557723671,
        "timestamp": "2025-12-20T14:38:01.626214+00:00",
        "meta_object_name": "FM-5",
        "meta_object_id": "2009-034A",
        "meta_epoch": "2025-12-20T04:13:38.642880",
        "meta_mean_motion": 1.00271807,
        "meta_eccentricity": 0.00010184,
        "meta_inclination": 0.0204,
        "meta_ra_of_asc_node": 294.9415,
        "meta_arg_of_pericenter": 220.2537,
        "meta_mean_anomaly": 271.0907,
        "meta_ephemeris_type": 0,
        "meta_classification_type": "U",
        "meta_norad_cat_id": 35493,
        "meta_element_set_no": 999,
        "meta_rev_at_epoch": 4484,
        "meta_bstar": 0,
        "meta_mean_motion_dot": -1.76e-06,
        "meta_mean_motion_ddot": 0,
        "tle_line1": "1 35493U 09034A   25354.17614170 -.00000176  00000+0  00000+0 0  9999",
        "tle_line2": "2 35493   0.0204 294.9415 0001018 220.2537 271.0907  1.00271807 44849"
      },
      "geometry": {
        "type": "Point",
        "coordinates": [
          -137.18972944720903,
          -0.032087556151258925
        ]
      }
    },
    {
      "type": "Feature",
      "properties": {
        "norad_id": 36097,
        "name": "INTELSAT 14 (IS-14)",
        "group": "intelsat",
        "lat": -0.040359452590182594,
        "lon": -96.05994437974702,
        "alt_km": 35776.37406213243,
        "timestamp": "2025-12-20T14:38:01.626225+00:00",
        "meta_object_name": "INTELSAT 14 (IS-14)",
        "meta_object_id": "2009-064A",
        "meta_epoch": "2025-12-20T03:23:38.704416",
        "meta_mean_motion": 1.00271079,
        "meta_eccentricity": 0.00024493,
        "meta_inclination": 0.0128,
        "meta_ra_of_asc_node": 357.8431,
        "meta_arg_of_pericenter": 282.4538,
        "meta_mean_anomaly": 174.6048,
        "meta_ephemeris_type": 0,
        "meta_classification_type": "U",
        "meta_norad_cat_id": 36097,
        "meta_element_set_no": 999,
        "meta_rev_at_epoch": 5881,
        "meta_bstar": 0,
        "meta_mean_motion_dot": -2.49e-06,
        "meta_mean_motion_ddot": 0,
        "tle_line1": "1 36097U 09064A   25354.14142019 -.00000249  00000+0  00000+0 0  9999",
        "tle_line2": "2 36097   0.0128 357.8431 0002449 282.4538 174.6048  1.00271079 58819"
      },
      "geometry": {
        "type": "Point",
        "coordinates": [
          -96.05994437974702,
          -0.040359452590182594
        ]
      }
    },
    {
      "type": "Feature",
      "properties": {
        "norad_id": 36106,
        "name": "INTELSAT 15 (IS-15)",
        "group": "intelsat",
        "lat": 0.017060153993370304,
        "lon": 34.122844260857114,
        "alt_km": 35789.75398608792,
        "timestamp": "2025-12-20T14:38:01.626237+00:00",
        "meta_object_name": "INTELSAT 15 (IS-15)",
        "meta_object_id": "2009-067A",
        "meta_epoch": "2025-12-20T01:39:03.237408",
        "meta_mean_motion": 1.00272051,
        "meta_eccentricity": 0.00021385,
        "meta_inclination": 0.012,
        "meta_ra_of_asc_node": 15.9079,
        "meta_arg_of_pericenter": 264.0966,
        "meta_mean_anomaly": 278.8284,
        "meta_ephemeris_type": 0,
        "meta_classification_type": "U",
        "meta_norad_cat_id": 36106,
        "meta_element_set_no": 999,
        "meta_rev_at_epoch": 3943,
        "meta_bstar": 0,
        "meta_mean_motion_dot": -1.61e-06,
        "meta_mean_motion_ddot": 0,
        "tle_line1": "1 36106U 09067A   25354.06878747 -.00000161  00000+0  00000+0 0  9991",
        "tle_line2": "2 36106   0.0120  15.9079 0002138 264.0966 278.8284  1.00272051 39435"
      },
      "geometry": {
        "type": "Point",
        "coordinates": [
          34.122844260857114,
          0.017060153993370304
        ]
      }
    },
    {
      "type": "Feature",
      "properties": {
        "norad_id": 36131,
        "name": "DIRECTV 12",
        "group": "intelsat",
        "lat": -0.0003422966037163986,
        "lon": -153.76456167326873,
        "alt_km": 35786.685657775255,
        "timestamp": "2025-12-20T14:38:01.626249+00:00",
        "meta_object_name": "DIRECTV 12",
        "meta_object_id": "2009-075A",
        "meta_epoch": "2025-12-19T13:24:30.815136",
        "meta_mean_motion": 1.00274473,
        "meta_eccentricity": 4.78e-05,
        "meta_inclination": 0.0149,
        "meta_ra_of_asc_node": 93.7995,
        "meta_arg_of_pericenter": 244.7113,
        "meta_mean_anomaly": 208.3134,
        "meta_ephemeris_type": 0,
        "meta_classification_type": "U",
        "meta_norad_cat_id": 36131,
        "meta_element_set_no": 999,
        "meta_rev_at_epoch": 4475,
        "meta_bstar": 0,
        "meta_mean_motion_dot": -8e-07,
        "meta_mean_motion_ddot": 0,
        "tle_line1": "1 36131U 09075A   25353.55868999 -.00000080  00000+0  00000+0 0  9999",
        "tle_line2": "2 36131   0.0149  93.7995 0000478 244.7113 208.3134  1.00274473 44752"
      },
      "geometry": {
        "type": "Point",
        "coordinates": [
          -153.76456167326873,
          -0.0003422966037163986
        ]
      }
    },
    {
      "type": "Feature",
      "properties": {
        "norad_id": 36397,
        "name": "INTELSAT 16 (IS-16)",
        "group": "intelsat",
        "lat": -0.03407669289823234,
        "lon": -127.2644955215394,
        "alt_km": 35780.036476620866,
        "timestamp": "2025-12-20T14:38:01.626262+00:00",
        "meta_object_name": "INTELSAT 16 (IS-16)",
        "meta_object_id": "2010-006A",
        "meta_epoch": "2025-12-20T02:35:47.219424",
        "meta_mean_motion": 1.00271903,
        "meta_eccentricity": 0.0001819,
        "meta_inclination": 0.0114,
        "meta_ra_of_asc_node": 343.9056,
        "meta_arg_of_pericenter": 287.0054,
        "meta_mean_anomaly": 140.7925,
        "meta_ephemeris_type": 0,
        "meta_classification_type": "U",
        "meta_norad_cat_id": 36397,
        "meta_element_set_no": 999,
        "meta_rev_at_epoch": 5785,
        "meta_bstar": 0,
        "meta_mean_motion_dot": -2.21e-06,
        "meta_mean_motion_ddot": 0,
        "tle_line1": "1 36397U 10006A   25354.10818541 -.00000221  00000+0  00000+0 0  9996",
        "tle_line2": "2 36397   0.0114 343.9056 0001819 287.0054 140.7925  1.00271903 57857"
      },
      "geometry": {
        "type": "Point",
        "coordinates": [
          -127.2644955215394,
          -0.03407669289823234
        ]
      }
    },
    {
      "type": "Feature",
      "properties": {
        "norad_id": 37185,
        "name": "XM-5",
        "group": "intelsat",
        "lat": -0.06357668856790882,
        "lon": -166.23236242742922,
        "alt_km": 35780.50047676219,
        "timestamp": "2025-12-20T14:38:01.626273+00:00",
        "meta_object_name": "XM-5",
        "meta_object_id": "2010-053A",
        "meta_epoch": "2025-12-20T00:57:20.858400",
        "meta_mean_motion": 1.00271954,
        "meta_eccentricity": 0.00020049,
        "meta_inclination": 0.0636,
        "meta_ra_of_asc_node": 271.3259,
        "meta_arg_of_pericenter": 233.6386,
        "meta_mean_anomaly": 203.0633,
        "meta_ephemeris_type": 0,
        "meta_classification_type": "U",
        "meta_norad_cat_id": 37185,
        "meta_element_set_no": 999,
        "meta_rev_at_epoch": 5568,
        "meta_bstar": 0,
        "meta_mean_motion_dot": 1e-08,
        "meta_mean_motion_ddot": 0,
        "tle_line1": "1 37185U 10053A   25354.03982475  .00000001  00000+0  00000+0 0  9999",
        "tle_line2": "2 37185   0.0636 271.3259 0002004 233.6386 203.0633  1.00271954 55687"
      },
      "geometry": {
        "type": "Point",
        "coordinates": [
          -166.23236242742922,
          -0.06357668856790882
        ]
      }
    }
  ]
}